[{"OBJECT_NAME":"STARLINK-31162","OBJECT_ID":"2024-012E","EPOCH":"2026-03-09T08:02:33.299232","MEAN_MOTION":15.27589946,"ECCENTRICITY":0.00019066,"INCLINATION":43.0024,"RA_OF_ASC_NODE":167.0956,"ARG_OF_PERICENTER":282.4896,"MEAN_ANOMALY":77.5743,"EPHEMERIS_TYPE":0,"CLASSIFICATION_TYPE":"U","NORAD_CAT_ID":58791,"ELEMENT_SET_NO":999,"REV_AT_EPOCH":12118,"BSTAR":-1.2837709e-5,"MEAN_MOTION_DOT":-6.16e-6,"MEAN_MOTION_DDOT":0},{"OBJECT_NAME":"FLOCK 4G-23","OBJECT_ID":"2025-009AQ","EPOCH":"2026-03-09T17:11:57.175872","MEAN_MOTION":15.27262579,"ECCENTRICITY":9.048e-5,"INCLINATION":97.3979,"RA_OF_ASC_NODE":150.9478,"ARG_OF_PERICENTER":7.2707,"MEAN_ANOMALY":352.8545,"EPHEMERIS_TYPE":0,"CLASSIFICATION_TYPE":"U","NORAD_CAT_ID":62647,"ELEMENT_SET_NO":999,"REV_AT_EPOCH":6372,"BSTAR":0.00046815788,"MEAN_MOTION_DOT":0.0001244,"MEAN_MOTION_DDOT":0}]
